[{"OBJECT_NAME":"SENTINEL-3B","OBJECT_ID":"2018-039A","EPOCH":"2026-03-09T22:56:26.429280","MEAN_MOTION":14.26736439,"ECCENTRICITY":9.653e-5,"INCLINATION":98.6227,"RA_OF_ASC_NODE":137.8858,"ARG_OF_PERICENTER":127.5232,"MEAN_ANOMALY":232.6036,"EPHEMERIS_TYPE":0,"CLASSIFICATION_TYPE":"U","NORAD_CAT_ID":43437,"ELEMENT_SET_NO":999,"REV_AT_EPOCH":40997,"BSTAR":7.6183716e-5,"MEAN_MOTION_DOT":1.41e-6,"MEAN_MOTION_DDOT":0},{"OBJECT_NAME":"PSLV R\/B","OBJECT_ID":"2011-015D","EPOCH":"2026-03-09T21:45:02.003616","MEAN_MOTION":14.28305016,"ECCENTRICITY":0.00175657,"INCLINATION":98.4979,"RA_OF_ASC_NODE":21.3584,"ARG_OF_PERICENTER":203.267,"MEAN_ANOMALY":225.6078,"EPHEMERIS_TYPE":0,"CLASSIFICATION_TYPE":"U","NORAD_CAT_ID":37390,"ELEMENT_SET_NO":999,"REV_AT_EPOCH":77565,"BSTAR":0.00010052201,"MEAN_MOTION_DOT":2.08e-6,"MEAN_MOTION_DDOT":0}]
